{
    "links": {
        "self": "http://www.neowsapp.com/rest/v1/neo/3600562?api_key=iIulBulltgU6a56xZRHN4H3l9WmuAYTsLGpBGhQ2"
    },
    "id": "3600562",
    "neo_reference_id": "3600562",
    "name": "(2012 EN3)",
    "designation": "2012 EN3",
    "nasa_jpl_url": "http://ssd.jpl.nasa.gov/sbdb.cgi?sstr=3600562",
    "absolute_magnitude_h": 24.0,
    "estimated_diameter": {
        "kilometers": {
            "estimated_diameter_min": 0.0421264611,
            "estimated_diameter_max": 0.0941976306
        },
        "meters": {
            "estimated_diameter_min": 42.1264610556,
            "estimated_diameter_max": 94.1976305719
        },
        "miles": {
            "estimated_diameter_min": 0.0261761612,
            "estimated_diameter_max": 0.0585316759
        },
        "feet": {
            "estimated_diameter_min": 138.2101784897,
            "estimated_diameter_max": 309.0473542854
        }
    },
    "is_potentially_hazardous_asteroid": false,
    "close_approach_data": [
        {
            "close_approach_date": "2012-03-12",
            "close_approach_date_full": "2012-Mar-12 11:48",
            "epoch_date_close_approach": 1331552880000,
            "relative_velocity": {
                "kilometers_per_second": "9.0532154834",
                "kilometers_per_hour": "32591.5757401767",
                "miles_per_hour": "20251.1377147781"
            },
            "miss_distance": {
                "astronomical": "0.0503870758",
                "lunar": "19.6005724862",
                "kilometers": "7537799.215208546",
                "miles": "4683771.2429720948"
            },
            "orbiting_body": "Earth"
        }
    ],
    "orbital_data": {
        "orbit_id": "13",
        "orbit_determination_date": "2017-04-06 08:50:38",
        "first_observation_date": "2012-03-03",
        "last_observation_date": "2012-03-14",
        "data_arc_in_days": 11,
        "observations_used": 79,
        "orbit_uncertainty": "8",
        "minimum_orbit_intersection": ".0340292",
        "jupiter_tisserand_invariant": "3.380",
        "epoch_osculation": "2455992.5",
        "eccentricity": ".5571659417904509",
        "semi_major_axis": "2.276549149602552",
        "inclination": "4.752879175779644",
        "ascending_node_longitude": "162.6197900652504",
        "orbital_period": "1254.625104415845",
        "perihelion_distance": "1.008133498631996",
        "perihelion_argument": "31.57734066059242",
        "aphelion_distance": "3.544964800573108",
        "perihelion_time": "2456015.993354661814",
        "mean_anomaly": "353.258856650895",
        "mean_motion": ".2869383043053458",
        "equinox": "J2000",
        "orbit_class": {
            "orbit_class_type": "APO",
            "orbit_class_description": "Near-Earth asteroid orbits which cross the Earth’s orbit similar to that of 1862 Apollo",
            "orbit_class_range": "a (semi-major axis) > 1.0 AU; q (perihelion) < 1.017 AU"
        }
    },
    "is_sentry_object": false
}